NORAD_CAT_ID,OBJECT_NAME,OBJECT_TYPE,EPOCH,MEAN_MOTION,ECCENTRICITY,INCLINATION,RA_OF_ASC_NODE,ARG_OF_PERICENTER,MEAN_ANOMALY,BSTAR,MEAN_MOTION_DOT,MEAN_MOTION_DDOT,TLE_LINE0,TLE_LINE1,TLE_LINE2,SEMIMAJOR_AXIS,PERIOD,APOGEE,PERIGEE,DECAYED
52624.0,STARLINK-4009,PAYLOAD,2023-01-17 06:21:01,15.08830755,0.0002209,53.2162,20.1187,63.7835,296.3384,-0.00027449,-4.653e-05,0.0,0 STARLINK-4009,1 52624U 22052AC  23017.26460342 -.00004653  00000-0 -27449-3 0  9999,2 52624  53.2162  20.1187 0002209  63.7835 296.3384 15.08830755 38147,6917.909000000001,95.438,541.302,538.245,0.0
52624.0,STARLINK-4009,PAYLOAD,2023-01-17 17:28:43,15.08835988,0.0002289,53.2157,18.0375,63.6575,296.4652,0.00020741,3.014e-05,0.0,0 STARLINK-4009,1 52624U 22052AC  23017.72828679  .00003014  00000-0  20741-3 0  9997,2 52624  53.2157  18.0375 0002289  63.6575 296.4652 15.08835988 37831,6917.893,95.438,541.341,538.174,0.0
52624.0,STARLINK-4009,PAYLOAD,2023-01-18 09:22:35,15.08851713,0.0002475,53.2158,15.0625,77.6806,282.4463,0.001216,0.00019124,0.0,0 STARLINK-4009,1 52624U 22052AC  23018.39069125  .00019124  00000-0  12160-2 0  9998,2 52624  53.2158  15.0625 0002475  77.6806 282.4463 15.08851713 38319,6917.845,95.437,541.422,537.997,0.0
52624.0,STARLINK-4009,PAYLOAD,2023-01-19 09:13:21,15.08881286,0.0002157,53.2165,10.6028,77.0451,283.0782,0.0017172,0.00027178,0.0,0 STARLINK-4009,1 52624U 22052AC  23019.38428031  .00027178  00000-0  17172-2 0  9999,2 52624  53.2165  10.6028 0002157  77.0451 283.0782 15.08881286 38467,6917.754,95.435,541.111,538.127,0.0
52624.0,STARLINK-4009,PAYLOAD,2023-01-20 15:25:42,15.08801559,0.0001799,53.2175,4.9519,94.1716,265.9481,0.00083122,0.00012952,0.0,0 STARLINK-4009,1 52624U 22052AC  23020.64284994  .00012952  00000-0  83122-3 0  9991,2 52624  53.2175   4.9519 0001799  94.1716 265.9481 15.08801559 38655,6917.9980000000005,95.44,541.107,538.618,0.0
52624.0,STARLINK-4009,PAYLOAD,2023-01-21 02:33:24,15.08823895,0.0002079,53.2164,2.8699,96.1809,263.942,0.0011223,0.00017611,0.0,0 STARLINK-4009,1 52624U 22052AC  23021.10652880  .00017611  00000-0  11223-2 0  9995,2 52624  53.2164   2.8699 0002079  96.1809 263.9420 15.08823895 38722,6917.93,95.439,541.2330000000001,538.356,0.0
52624.0,STARLINK-4009,PAYLOAD,2023-01-21 15:16:30,15.08833322,0.0002189,53.2168,0.4914,95.1698,264.9544,0.0018675,0.00029553,0.0,0 STARLINK-4009,1 52624U 22052AC  23021.63645856  .00029553  00000-0  18675-2 0  9994,2 52624  53.2168   0.4914 0002189  95.1698 264.9544 15.08833322 38800,6917.901,95.438,541.28,538.251,0.0
52624.0,STARLINK-4009,PAYLOAD,2023-01-22 02:24:10,15.08882561,0.0001445,53.217,358.4105,102.0005,258.1149,0.0014037,0.00022149,0.0,0 STARLINK-4009,1 52624U 22052AC  23022.10012042  .00022149  00000-0  14037-2 0  9994,2 52624  53.2170 358.4105 0001445 102.0005 258.1149 15.08882561 38877,6917.75,95.435,540.615,538.616,0.0
52624.0,STARLINK-4009,PAYLOAD,2023-01-22 07:10:18,15.08927403,0.0001696999999999,53.2169,357.5198,113.7297,246.3874,0.0033669,0.00053835,0.0,0 STARLINK-4009,1 52624U 22052AC  23022.29882877  .00053835  00000-0  33669-2 0  9993,2 52624  53.2169 357.5198 0001697 113.7297 246.3874 15.08927403 38901,6917.613,95.432,540.6519999999999,538.304,0.0
52624.0,STARLINK-4009,PAYLOAD,2023-01-23 10:11:54,15.08815771,0.0001479,53.2162,352.4636,83.4335,276.6826,0.0028319,0.0004503999999999,0.0,0 STARLINK-4009,1 52624U 22052AC  23023.42493696  .00045040  00000-0  28319-2 0  9991,2 52624  53.2162 352.4636 0001479  83.4335 276.6826 15.08815771 39075,6917.954000000001,95.439,540.8430000000001,538.7959999999999,0.0
52624.0,STARLINK-4009,PAYLOAD,2023-01-24 03:41:09,15.08858447,0.0001565999999999,53.2169,349.1938,97.0216,263.0954,0.0037233,0.00059499,0.0,0 STARLINK-4009,1 52624U 22052AC  23024.15358165  .00059499  00000-0  37233-2 0  9991,2 52624  53.2169 349.1938 0001566  97.0216 263.0954 15.08858447 39187,6917.8240000000005,95.436,540.7719999999999,538.606,0.0
52624.0,STARLINK-4009,PAYLOAD,2023-01-24 14:48:51,15.08853125,0.0001754,53.2174,347.112,84.0054,276.1138,0.0019002,0.00030094,0.0,0 STARLINK-4009,1 52624U 22052AC  23024.61726223  .00030094  00000-0  19002-2 0  9990,2 52624  53.2174 347.1120 0001754  84.0054 276.1138 15.08853125 39254,6917.84,95.437,540.919,538.492,0.0
52624.0,STARLINK-4009,PAYLOAD,2023-01-25 03:31:56,15.0885541,0.0001164,53.2163,344.7317,102.8226,257.2897,0.0021811,0.0003461,0.0,0 STARLINK-4009,1 52624U 22052AC  23025.14718122  .00034610  00000-0  21811-2 0  9997,2 52624  53.2163 344.7317 0001164 102.8226 257.2897 15.08855410 39338,6917.8330000000005,95.437,540.504,538.893,0.0
52624.0,STARLINK-4009,PAYLOAD,2023-01-25 06:42:42,15.08861055,0.0001145,53.2163,344.1373,99.9033,260.2088,0.002613,0.00041567,0.0,0 STARLINK-4009,1 52624U 22052AC  23025.27966064  .00041567  00000-0  26130-2 0  9999,2 52624  53.2163 344.1373 0001145  99.9033 260.2088 15.08861055 38972,6917.816,95.436,540.4730000000001,538.889,0.0
52624.0,STARLINK-4009,PAYLOAD,2023-01-25 14:39:38,15.08849327,0.0001721999999999,53.2163,342.6508,85.7899,274.329,0.001483,0.00023399,0.0,0 STARLINK-4009,1 52624U 22052AC  23025.61086592  .00023399  00000-0  14830-2 0  9993,2 52624  53.2163 342.6508 0001722  85.7899 274.3290 15.08849327 39407,6917.852,95.437,540.908,538.526,0.0
52624.0,STARLINK-4009,PAYLOAD,2023-01-26 03:22:43,15.08859979,0.0001351999999999,53.217,340.2731,88.0199,272.0948,0.0019524999999999,0.0003094,0.0,0 STARLINK-4009,1 52624U 22052AC  23026.14078380  .00030940  00000-0  19525-2 0  9994,2 52624  53.2170 340.2731 0001352  88.0199 272.0948 15.08859979 39482,6917.819,95.436,540.62,538.749,0.0
52624.0,STARLINK-4009,PAYLOAD,2023-01-27 01:38:07,15.08855587,0.0001489,53.2165,336.1068,105.4735,254.6421,0.0015442,0.00024384,0.0,0 STARLINK-4009,1 52624U 22052AC  23027.06814253  .00024384  00000-0  15442-2 0  9992,2 52624  53.2165 336.1068 0001489 105.4735 254.6421 15.08855587 39623,6917.8330000000005,95.437,540.7280000000001,538.668,0.0
52624.0,STARLINK-4009,PAYLOAD,2023-01-27 06:24:16,15.08858468,0.000151,53.216,335.2161,46.6124,313.4993,0.0018018,0.00028519,0.0,0 STARLINK-4009,1 52624U 22052AC  23027.26686298  .00028519  00000-0  18018-2 0  9996,2 52624  53.2160 335.2161 0001510  46.6124 313.4993 15.08858468 39275,6917.8240000000005,95.436,540.734,538.644,0.0
52624.0,STARLINK-4009,PAYLOAD,2023-01-28 03:04:15,15.08898559,0.0001281,53.2149,331.3498,63.7805,296.3319,0.0015728,0.00024872,0.0,0 STARLINK-4009,1 52624U 22052AC  23028.12796043  .00024872  00000-0  15728-2 0  9995,2 52624  53.2149 331.3498 0001281  63.7805 296.3319 15.08898559 39785,6917.701,95.434,540.453,538.68,0.0
52624.0,STARLINK-4009,PAYLOAD,2023-01-28 06:15:01,15.08908664,0.0001341,53.216,330.7567,73.7295,286.3844,0.0018031,0.00028579,0.0,0 STARLINK-4009,1 52624U 22052AC  23028.26043424  .00028579  00000-0  18031-2 0  9996,2 52624  53.2160 330.7567 0001341  73.7295 286.3844 15.08908664 39421,6917.671,95.433,540.463,538.608,0.0
52624.0,STARLINK-4009,PAYLOAD,2023-01-29 02:54:56,15.08972796,0.0001287,53.2158,326.8905,82.0447,278.0691,0.0019397,0.0003083,0.0,0 STARLINK-4009,1 52624U 22052AC  23029.12149234  .00030830  00000-0  19397-2 0  9997,2 52624  53.2158 326.8905 0001287  82.0447 278.0691 15.08972796 39932,6917.475,95.429,540.23,538.449,0.0
52624.0,STARLINK-4009,PAYLOAD,2023-01-29 04:30:19,15.08980335,0.0001309,53.216,326.5929,81.2389,278.8751,0.0020885,0.00033236,0.0,0 STARLINK-4009,1 52624U 22052AC  23029.18772591  .00033236  00000-0  20885-2 0  9998,2 52624  53.2160 326.5929 0001309  81.2389 278.8751 15.08980335 39561,6917.451,95.429,540.222,538.411,0.0
52624.0,STARLINK-4009,PAYLOAD,2023-01-30 01:10:11,15.0889919,0.0001274,53.2155,322.7264,58.6053,301.5064,-0.003502,-0.00055681,0.0,0 STARLINK-4009,1 52624U 22052AC  23030.04874841 -.00055681  00000-0 -35020-2 0  9993,2 52624  53.2155 322.7264 0001274  58.6053 301.5064 15.08899190 40079,6917.699,95.434,540.446,538.683,0.0
52624.0,STARLINK-4009,PAYLOAD,2023-01-30 04:20:58,15.08849262,0.0001841,53.2157,322.1314,46.1957,313.9187,0.00018251,2.618e-05,0.0,0 STARLINK-4009,1 52624U 22052AC  23030.18123467  .00002618  00000-0  18251-3 0  9997,2 52624  53.2157 322.1314 0001841  46.1957 313.9187 15.08849262 39713,6917.852,95.437,540.991,538.444,0.0
52624.0,STARLINK-4009,PAYLOAD,2023-01-31 01:00:58,15.08879308,0.0001762,53.2152,318.2659,59.8056,300.311,0.0014668,0.00023158,0.0,0 STARLINK-4009,1 52624U 22052AC  23031.04234601  .00023158  00000-0  14668-2 0  9995,2 52624  53.2152 318.2659 0001762  59.8056 300.3110 15.08879308 40227,6917.76,95.435,540.844,538.406,0.0
52624.0,STARLINK-4009,PAYLOAD,2023-01-31 05:47:07,15.08893329,0.0001781,53.2152,317.374,58.8269,301.2897,0.001685,0.0002667,0.0,0 STARLINK-4009,1 52624U 22052AC  23031.24105936  .00026670  00000-0  16850-2 0  9992,2 52624  53.2152 317.3740 0001781  58.8269 301.2897 15.08893329 39874,6917.717,95.434,540.814,538.35,0.0
52624.0,STARLINK-4009,PAYLOAD,2023-01-31 18:30:10,15.08931093,0.0001801,53.2155,314.9946,61.8711,298.2463,0.0019748,0.0003136,0.0,0 STARLINK-4009,1 52624U 22052AC  23031.77095276  .00031360  00000-0  19748-2 0  9996,2 52624  53.2155 314.9946 0001801  61.8711 298.2463 15.08931093 40335,6917.602,95.432,540.713,538.221,0.0
52624.0,STARLINK-4009,PAYLOAD,2023-02-01 04:02:26,15.08960315,0.0001799,53.2153,313.2104,62.2155,297.9019,0.0021355,0.00033975,0.0,0 STARLINK-4009,1 52624U 22052AC  23032.16836384  .00033975  00000-0  21355-2 0  9994,2 52624  53.2153 313.2104 0001799  62.2155 297.9019 15.08960315 40011,6917.513,95.43,540.622,538.133,0.0
52624.0,STARLINK-4009,PAYLOAD,2023-02-02 00:42:19,15.09016892,0.0001798,53.2155,309.3443,62.8085,297.309,0.0019138,0.0003045,0.0,0 STARLINK-4009,1 52624U 22052AC  23033.02939676  .00030450  00000-0  19138-2 0  9999,2 52624  53.2155 309.3443 0001798  62.8085 297.3090 15.09016892 40524,6917.34,95.426,540.448,537.961,0.0
